{"type": "FeatureCollection", "features": [ {"type": "Feature", "properties": {"norad_id": 38552, "name": "METEOSAT-10 (MSG-3)", "group": "weather", "lat": 4.2609915219793795, "lon": 155.83719752690632, "alt_km": 35793.06678116282, "timestamp": "2025-12-27T03:58:43.824331+00:00", "meta": {"OBJECT_NAME": "METEOSAT-10 (MSG-3)", "OBJECT_ID": "2012-035B", "EPOCH": "2025-12-25T19:55:02.807904", "MEAN_MOTION": 1.00266624, "ECCENTRICITY": 0.0001479, "INCLINATION": 4.2575, "RA_OF_ASC_NODE": 61.6862, "ARG_OF_PERICENTER": 265.3349, "MEAN_ANOMALY": 66.5982, "EPHEMERIS_TYPE": 0, "CLASSIFICATION_TYPE": "U", "NORAD_CAT_ID": 38552, "ELEMENT_SET_NO": 999, "REV_AT_EPOCH": 4911, "BSTAR": 0, "MEAN_MOTION_DOT": 1.4e-07, "MEAN_MOTION_DDOT": 0}, "tle": {"line1": "1 38552U 12035B   25359.82989361  .00000014  00000+0  00000+0 0  9997", "line2": "2 38552   4.2575  61.6862 0001479 265.3349  66.5982  1.00266624 49118"}}, "geometry": {"type": "Point", "coordinates": [155.83719752690632, 4.2609915219793795]}}, {"type": "Feature", "properties": {"norad_id": 38771, "name": "METOP-B", "group": "weather", "lat": 63.881637170999205, "lon": 32.72898917329857, "alt_km": 812.7413602143743, "timestamp": "2025-12-27T03:58:43.824342+00:00", "meta": {"OBJECT_NAME": "METOP-B", "OBJECT_ID": "2012-049A", "EPOCH": "2025-12-26T19:13:33.005280", "MEAN_MOTION": 14.21413615, "ECCENTRICITY": 0.0003309, "INCLINATION": 98.678, "RA_OF_ASC_NODE": 50.5202, "ARG_OF_PERICENTER": 115.0948, "MEAN_ANOMALY": 245.0573, "EPHEMERIS_TYPE": 0, "CLASSIFICATION_TYPE": "U", "NORAD_CAT_ID": 38771, "ELEMENT_SET_NO": 999, "REV_AT_EPOCH": 68877, "BSTAR": 8.1243e-05, "MEAN_MOTION_DOT": 1.34e-06, "MEAN_MOTION_DDOT": 0}, "tle": {"line1": "1 38771U 12049A   25360.80107645  .00000134  00000+0  81243-4 0  9998", "line2": "2 38771  98.6780  50.5202 0003309 115.0948 245.0573 14.21413615688773"}}, "geometry": {"type": "Point", "coordinates": [32.72898917329857, 63.881637170999205]}}, {"type": "Feature", "properties": {"norad_id": 39216, "name": "INSAT-3D", "group": "weather", "lat": -0.5324619751032399, "lon": -74.85802870340838, "alt_km": 35779.62468446964, "timestamp": "2025-12-27T03:58:43.824352+00:00", "meta": {"OBJECT_NAME": "INSAT-3D", "OBJECT_ID": "2013-038B", "EPOCH": "2025-12-26T14:40:38.546400", "MEAN_MOTION": 1.00273304, "ECCENTRICITY": 0.0001962, "INCLINATION": 1.4788, "RA_OF_ASC_NODE": 84.8393, "ARG_OF_PERICENTER": 158.3266, "MEAN_ANOMALY": 201.9018, "EPHEMERIS_TYPE": 0, "CLASSIFICATION_TYPE": "U", "NORAD_CAT_ID": 39216, "ELEMENT_SET_NO": 999, "REV_AT_EPOCH": 4535, "BSTAR": 0, "MEAN_MOTION_DOT": -3.17e-06, "MEAN_MOTION_DDOT": 0}, "tle": {"line1": "1 39216U 13038B   25360.61155725 -.00000317  00000+0  00000+0 0  9994", "line2": "2 39216   1.4788  84.8393 0001962 158.3266 201.9018  1.00273304 45353"}}, "geometry": {"type": "Point", "coordinates": [-74.85802870340838, -0.5324619751032399]}}, {"type": "Feature", "properties": {"norad_id": 39260, "name": "FENGYUN 3C", "group": "weather", "lat": 15.424081323384241, "lon": -24.216589861333066, "alt_km": 848.8301690207436, "timestamp": "2025-12-27T03:58:43.824364+00:00", "meta": {"OBJECT_NAME": "FENGYUN 3C", "OBJECT_ID": "2013-052A", "EPOCH": "2025-12-26T21:07:12.910656", "MEAN_MOTION": 14.1570055, "ECCENTRICITY": 0.0015074, "INCLINATION": 98.478, "RA_OF_ASC_NODE": 337.87, "ARG_OF_PERICENTER": 155.3994, "MEAN_ANOMALY": 204.7903, "EPHEMERIS_TYPE": 0, "CLASSIFICATION_TYPE": "U", "NORAD_CAT_ID": 39260, "ELEMENT_SET_NO": 999, "REV_AT_EPOCH": 63418, "BSTAR": 7.6136e-05, "MEAN_MOTION_DOT": 1.08e-06, "MEAN_MOTION_DDOT": 0}, "tle": {"line1": "1 39260U 13052A   25360.88001054  .00000108  00000+0  76136-4 0  9998", "line2": "2 39260  98.4780 337.8700 0015074 155.3994 204.7903 14.15700550634184"}}, "geometry": {"type": "Point", "coordinates": [-24.216589861333066, 15.424081323384241]}}, {"type": "Feature", "properties": {"norad_id": 40069, "name": "METEOR-M 2", "group": "weather", "lat": -66.17792006521664, "lon": -2.0222783269227707, "alt_km": 830.3507608288983, "timestamp": "2025-12-27T03:58:43.824374+00:00", "meta": {"OBJECT_NAME": "METEOR-M 2", "OBJECT_ID": "2014-037A", "EPOCH": "2025-12-26T21:32:21.240384", "MEAN_MOTION": 14.21391493, "ECCENTRICITY": 0.0005732, "INCLINATION": 98.4923, "RA_OF_ASC_NODE": 337.9401, "ARG_OF_PERICENTER": 166.1056, "MEAN_ANOMALY": 194.0281, "EPHEMERIS_TYPE": 0, "CLASSIFICATION_TYPE": "U", "NORAD_CAT_ID": 40069, "ELEMENT_SET_NO": 999, "REV_AT_EPOCH": 59484, "BSTAR": -1.7628e-06, "MEAN_MOTION_DOT": -4.6e-07, "MEAN_MOTION_DDOT": 0}, "tle": {"line1": "1 40069U 14037A   25360.89746806 -.00000046  00000+0 -17628-5 0  9998", "line2": "2 40069  98.4923 337.9401 0005732 166.1056 194.0281 14.21391493594847"}}, "geometry": {"type": "Point", "coordinates": [-2.0222783269227707, -66.17792006521664]}}, {"type": "Feature", "properties": {"norad_id": 40267, "name": "HIMAWARI-8", "group": "weather", "lat": 0.021728419606839106, "lon": -63.76398296138168, "alt_km": 35782.27351276439, "timestamp": "2025-12-27T03:58:43.824384+00:00", "meta": {"OBJECT_NAME": "HIMAWARI-8", "OBJECT_ID": "2014-060A", "EPOCH": "2025-12-26T08:33:59.245344", "MEAN_MOTION": 1.0027063, "ECCENTRICITY": 0.000101, "INCLINATION": 0.0427, "RA_OF_ASC_NODE": 196.506, "ARG_OF_PERICENTER": 108.6661, "MEAN_ANOMALY": 59.0936, "EPHEMERIS_TYPE": 0, "CLASSIFICATION_TYPE": "U", "NORAD_CAT_ID": 40267, "ELEMENT_SET_NO": 999, "REV_AT_EPOCH": 4102, "BSTAR": 0, "MEAN_MOTION_DOT": -2.54e-06, "MEAN_MOTION_DDOT": 0}, "tle": {"line1": "1 40267U 14060A   25360.35693571 -.00000254  00000+0  00000+0 0  9995", "line2": "2 40267   0.0427 196.5060 0001010 108.6661  59.0936  1.00270630 41029"}}, "geometry": {"type": "Point", "coordinates": [-63.76398296138168, 0.021728419606839106]}}, {"type": "Feature", "properties": {"norad_id": 40367, "name": "FENGYUN 2G", "group": "weather", "lat": -0.011837332016690197, "lon": -105.10868577857273, "alt_km": 35775.98682779019, "timestamp": "2025-12-27T03:58:43.824395+00:00", "meta": {"OBJECT_NAME": "FENGYUN 2G", "OBJECT_ID": "2014-090A", "EPOCH": "2025-12-26T20:25:12.847296", "MEAN_MOTION": 1.00281295, "ECCENTRICITY": 0.0001793, "INCLINATION": 5.2009, "RA_OF_ASC_NODE": 74.9231, "ARG_OF_PERICENTER": 170.6742, "MEAN_ANOMALY": 255.5928, "EPHEMERIS_TYPE": 0, "CLASSIFICATION_TYPE": "U", "NORAD_CAT_ID": 40367, "ELEMENT_SET_NO": 999, "REV_AT_EPOCH": 4027, "BSTAR": 0, "MEAN_MOTION_DOT": -2.81e-06, "MEAN_MOTION_DDOT": 0}, "tle": {"line1": "1 40367U 14090A   25360.85084314 -.00000281  00000+0  00000+0 0  9993", "line2": "2 40367   5.2009  74.9231 0001793 170.6742 255.5928  1.00281295 40278"}}, "geometry": {"type": "Point", "coordinates": [-105.10868577857273, -0.011837332016690197]}}, {"type": "Feature", "properties": {"norad_id": 40732, "name": "METEOSAT-11 (MSG-4)", "group": "weather", "lat": 2.7780673331013723, "lon": 164.75982766844515, "alt_km": 35783.55454463516, "timestamp": "2025-12-27T03:58:43.824406+00:00", "meta": {"OBJECT_NAME": "METEOSAT-11 (MSG-4)", "OBJECT_ID": "2015-034A", "EPOCH": "2025-12-25T16:31:52.264704", "MEAN_MOTION": 1.00271545, "ECCENTRICITY": 6.999e-05, "INCLINATION": 2.7688, "RA_OF_ASC_NODE": 71.966, "ARG_OF_PERICENTER": 136.703, "MEAN_ANOMALY": 142.9271, "EPHEMERIS_TYPE": 0, "CLASSIFICATION_TYPE": "U", "NORAD_CAT_ID": 40732, "ELEMENT_SET_NO": 999, "REV_AT_EPOCH": 547, "BSTAR": 0, "MEAN_MOTION_DOT": 8.2e-07, "MEAN_MOTION_DDOT": 0}, "tle": {"line1": "1 40732U 15034A   25359.68879936  .00000082  00000+0  00000+0 0  9997", "line2": "2 40732   2.7688  71.9660 0000699 136.7030 142.9271  1.00271545  5479"}}, "geometry": {"type": "Point", "coordinates": [164.75982766844515, 2.7780673331013723]}}, {"type": "Feature", "properties": {"norad_id": 41105, "name": "ELEKTRO-L 2", "group": "weather", "lat": 5.8351001487807865, "lon": 140.9645060913535, "alt_km": 35797.080983362925, "timestamp": "2025-12-27T03:58:43.824417+00:00", "meta": {"OBJECT_NAME": "ELEKTRO-L 2", "OBJECT_ID": "2015-074A", "EPOCH": "2025-12-26T06:33:21.536352", "MEAN_MOTION": 1.00271736, "ECCENTRICITY": 0.0003634, "INCLINATION": 6.2575, "RA_OF_ASC_NODE": 72.6671, "ARG_OF_PERICENTER": 208.1053, "MEAN_ANOMALY": 258.1181, "EPHEMERIS_TYPE": 0, "CLASSIFICATION_TYPE": "U", "NORAD_CAT_ID": 41105, "ELEMENT_SET_NO": 999, "REV_AT_EPOCH": 3677, "BSTAR": 0, "MEAN_MOTION_DOT": -9.7e-07, "MEAN_MOTION_DDOT": 0}, "tle": {"line1": "1 41105U 15074A   25360.27316593 -.00000097  00000+0  00000+0 0  9995", "line2": "2 41105   6.2575  72.6671 0003634 208.1053 258.1181  1.00271736 36778"}}, "geometry": {"type": "Point", "coordinates": [140.9645060913535, 5.8351001487807865]}}, {"type": "Feature", "properties": {"norad_id": 41752, "name": "INSAT-3DR", "group": "weather", "lat": 0.012544485006793732, "lon": -130.54630292822424, "alt_km": 35741.40613785227, "timestamp": "2025-12-27T03:58:43.824428+00:00", "meta": {"OBJECT_NAME": "INSAT-3DR", "OBJECT_ID": "2016-054A", "EPOCH": "2025-12-26T03:06:52.542720", "MEAN_MOTION": 1.00271485, "ECCENTRICITY": 0.0014374, "INCLINATION": 0.0398, "RA_OF_ASC_NODE": 84.8108, "ARG_OF_PERICENTER": 187.3091, "MEAN_ANOMALY": 303.4691, "EPHEMERIS_TYPE": 0, "CLASSIFICATION_TYPE": "U", "NORAD_CAT_ID": 41752, "ELEMENT_SET_NO": 999, "REV_AT_EPOCH": 3408, "BSTAR": 0, "MEAN_MOTION_DOT": -5.5e-07, "MEAN_MOTION_DDOT": 0}, "tle": {"line1": "1 41752U 16054A   25360.12977480 -.00000055  00000+0  00000+0 0  9998", "line2": "2 41752   0.0398  84.8108 0014374 187.3091 303.4691  1.00271485 34087"}}, "geometry": {"type": "Point", "coordinates": [-130.54630292822424, 0.012544485006793732]}}]}